{
  "type": "FeatureCollection",
  "features": [
    {
      "type": "Feature",
      "properties": {
        "norad_id": 66561,
        "name": "STARLINK-35305",
        "group": "last-30-days",
        "lat": 26.05856692984669,
        "lon": 129.91828952240743,
        "alt_km": 410.90332804777154,
        "timestamp": "2025-12-16T15:45:49.731732+00:00",
        "meta_object_name": "STARLINK-35305",
        "meta_object_id": "2025-268E",
        "meta_epoch": "2025-12-15T17:56:56.830272",
        "meta_mean_motion": 15.50556187,
        "meta_eccentricity": 0.00013798,
        "meta_inclination": 42.9996,
        "meta_ra_of_asc_node": 103.584,
        "meta_arg_of_pericenter": 275.7888,
        "meta_mean_anomaly": 84.2815,
        "meta_ephemeris_type": 0,
        "meta_classification_type": "U",
        "meta_norad_cat_id": 66561,
        "meta_element_set_no": 999,
        "meta_rev_at_epoch": 509,
        "meta_bstar": 0.0015983264,
        "meta_mean_motion_dot": 0.00094487,
        "meta_mean_motion_ddot": 0,
        "tle_line1": "1 66561U 25268E   25349.74787998  .00094487  00000+0  15983-2 0  9998",
        "tle_line2": "2 66561  42.9996 103.5840 0001379 275.7888  84.2815 15.50556187  5096"
      },
      "geometry": {
        "type": "Point",
        "coordinates": [
          129.91828952240743,
          26.05856692984669
        ]
      }
    },
    {
      "type": "Feature",
      "properties": {
        "norad_id": 66562,
        "name": "STARLINK-35579",
        "group": "last-30-days",
        "lat": 24.83013201069618,
        "lon": 128.04100385348588,
        "alt_km": 411.2685124689242,
        "timestamp": "2025-12-16T15:45:49.731742+00:00",
        "meta_object_name": "STARLINK-35579",
        "meta_object_id": "2025-268F",
        "meta_epoch": "2025-12-15T14:51:58.091904",
        "meta_mean_motion": 15.50561462,
        "meta_eccentricity": 0.00018101,
        "meta_inclination": 42.9992,
        "meta_ra_of_asc_node": 104.3385,
        "meta_arg_of_pericenter": 275.7942,
        "meta_mean_anomaly": 84.2711,
        "meta_ephemeris_type": 0,
        "meta_classification_type": "U",
        "meta_norad_cat_id": 66562,
        "meta_element_set_no": 999,
        "meta_rev_at_epoch": 507,
        "meta_bstar": 0.0011242939,
        "meta_mean_motion_dot": 0.00066134,
        "meta_mean_motion_ddot": 0,
        "tle_line1": "1 66562U 25268F   25349.61942236  .00066134  00000+0  11243-2 0  9996",
        "tle_line2": "2 66562  42.9992 104.3385 0001810 275.7942  84.2711 15.50561462  5072"
      },
      "geometry": {
        "type": "Point",
        "coordinates": [
          128.04100385348588,
          24.83013201069618
        ]
      }
    },
    {
      "type": "Feature",
      "properties": {
        "norad_id": 66563,
        "name": "STARLINK-35437",
        "group": "last-30-days",
        "lat": 27.289545354837855,
        "lon": 131.87964467861747,
        "alt_km": 410.6288342052194,
        "timestamp": "2025-12-16T15:45:49.731752+00:00",
        "meta_object_name": "STARLINK-35437",
        "meta_object_id": "2025-268G",
        "meta_epoch": "2025-12-15T16:23:40.741152",
        "meta_mean_motion": 15.50601833,
        "meta_eccentricity": 0.00035208,
        "meta_inclination": 42.9973,
        "meta_ra_of_asc_node": 103.957,
        "meta_arg_of_pericenter": 294.6285,
        "meta_mean_anomaly": 65.4208,
        "meta_ephemeris_type": 0,
        "meta_classification_type": "U",
        "meta_norad_cat_id": 66563,
        "meta_element_set_no": 999,
        "meta_rev_at_epoch": 508,
        "meta_bstar": 0.0013972444,
        "meta_mean_motion_dot": 0.00082577,
        "meta_mean_motion_ddot": 0,
        "tle_line1": "1 66563U 25268G   25349.68311043  .00082577  00000+0  13972-2 0  9990",
        "tle_line2": "2 66563  42.9973 103.9570 0003520 294.6285  65.4208 15.50601833  5083"
      },
      "geometry": {
        "type": "Point",
        "coordinates": [
          131.87964467861747,
          27.289545354837855
        ]
      }
    },
    {
      "type": "Feature",
      "properties": {
        "norad_id": 66564,
        "name": "STARLINK-35358",
        "group": "last-30-days",
        "lat": 28.260108446095757,
        "lon": 133.48733873309536,
        "alt_km": 411.0177539829574,
        "timestamp": "2025-12-16T15:45:49.731762+00:00",
        "meta_object_name": "STARLINK-35358",
        "meta_object_id": "2025-268H",
        "meta_epoch": "2025-12-15T16:23:12.810624",
        "meta_mean_motion": 15.50598451,
        "meta_eccentricity": 0.00022623,
        "meta_inclination": 42.9981,
        "meta_ra_of_asc_node": 103.9542,
        "meta_arg_of_pericenter": 271.5199,
        "meta_mean_anomaly": 88.5402,
        "meta_ephemeris_type": 0,
        "meta_classification_type": "U",
        "meta_norad_cat_id": 66564,
        "meta_element_set_no": 999,
        "meta_rev_at_epoch": 508,
        "meta_bstar": 0.0010819585,
        "meta_mean_motion_dot": 0.00063697,
        "meta_mean_motion_ddot": 0,
        "tle_line1": "1 66564U 25268H   25349.68278716  .00063697  00000+0  10820-2 0  9991",
        "tle_line2": "2 66564  42.9981 103.9542 0002262 271.5199  88.5402 15.50598451  5085"
      },
      "geometry": {
        "type": "Point",
        "coordinates": [
          133.48733873309536,
          28.260108446095757
        ]
      }
    },
    {
      "type": "Feature",
      "properties": {
        "norad_id": 66565,
        "name": "STARLINK-35893",
        "group": "last-30-days",
        "lat": 29.30235711297949,
        "lon": 135.28720399135602,
        "alt_km": 409.9912442742243,
        "timestamp": "2025-12-16T15:45:49.731787+00:00",
        "meta_object_name": "STARLINK-35893",
        "meta_object_id": "2025-268J",
        "meta_epoch": "2025-12-15T16:22:43.533120",
        "meta_mean_motion": 15.50586099,
        "meta_eccentricity": 0.00012075,
        "meta_inclination": 42.997,
        "meta_ra_of_asc_node": 103.9514,
        "meta_arg_of_pericenter": 305.8195,
        "meta_mean_anomaly": 54.2553,
        "meta_ephemeris_type": 0,
        "meta_classification_type": "U",
        "meta_norad_cat_id": 66565,
        "meta_element_set_no": 999,
        "meta_rev_at_epoch": 508,
        "meta_bstar": 0.0012503508,
        "meta_mean_motion_dot": 0.00073723,
        "meta_mean_motion_ddot": 0,
        "tle_line1": "1 66565U 25268J   25349.68244830  .00073723  00000+0  12504-2 0  9994",
        "tle_line2": "2 66565  42.9970 103.9514 0001207 305.8195  54.2553 15.50586099  5080"
      },
      "geometry": {
        "type": "Point",
        "coordinates": [
          135.28720399135602,
          29.30235711297949
        ]
      }
    },
    {
      "type": "Feature",
      "properties": {
        "norad_id": 66566,
        "name": "STARLINK-35871",
        "group": "last-30-days",
        "lat": 30.38946081948466,
        "lon": 137.2396930213559,
        "alt_km": 410.89199038491915,
        "timestamp": "2025-12-16T15:45:49.731800+00:00",
        "meta_object_name": "STARLINK-35871",
        "meta_object_id": "2025-268K",
        "meta_epoch": "2025-12-15T16:22:13.307808",
        "meta_mean_motion": 15.50613314,
        "meta_eccentricity": 0.00026941,
        "meta_inclination": 43.0029,
        "meta_ra_of_asc_node": 103.9463,
        "meta_arg_of_pericenter": 271.1381,
        "meta_mean_anomaly": 88.9171,
        "meta_ephemeris_type": 0,
        "meta_classification_type": "U",
        "meta_norad_cat_id": 66566,
        "meta_element_set_no": 999,
        "meta_rev_at_epoch": 508,
        "meta_bstar": 0.0011293655,
        "meta_mean_motion_dot": 0.00066564,
        "meta_mean_motion_ddot": 0,
        "tle_line1": "1 66566U 25268K   25349.68209847  .00066564  00000+0  11294-2 0  9994",
        "tle_line2": "2 66566  43.0029 103.9463 0002694 271.1381  88.9171 15.50613314  5085"
      },
      "geometry": {
        "type": "Point",
        "coordinates": [
          137.2396930213559,
          30.38946081948466
        ]
      }
    },
    {
      "type": "Feature",
      "properties": {
        "norad_id": 66567,
        "name": "STARLINK-35825",
        "group": "last-30-days",
        "lat": 31.316576221099982,
        "lon": 139.00371336875085,
        "alt_km": 410.1092896497303,
        "timestamp": "2025-12-16T15:45:49.731813+00:00",
        "meta_object_name": "STARLINK-35825",
        "meta_object_id": "2025-268L",
        "meta_epoch": "2025-12-15T16:21:44.113248",
        "meta_mean_motion": 15.50589598,
        "meta_eccentricity": 0.00015369,
        "meta_inclination": 42.9976,
        "meta_ra_of_asc_node": 103.9443,
        "meta_arg_of_pericenter": 289.9461,
        "meta_mean_anomaly": 70.1233,
        "meta_ephemeris_type": 0,
        "meta_classification_type": "U",
        "meta_norad_cat_id": 66567,
        "meta_element_set_no": 999,
        "meta_rev_at_epoch": 508,
        "meta_bstar": 0.00094660219,
        "meta_mean_motion_dot": 0.00055608,
        "meta_mean_motion_ddot": 0,
        "tle_line1": "1 66567U 25268L   25349.68176057  .00055608  00000+0  94660-3 0  9997",
        "tle_line2": "2 66567  42.9976 103.9443 0001536 289.9461  70.1233 15.50589598  5081"
      },
      "geometry": {
        "type": "Point",
        "coordinates": [
          139.00371336875085,
          31.316576221099982
        ]
      }
    }
  ]
}